[Satellite]
VERSION=1.1
NAME=STARLINK-5045
NICKNAME=STARLINK-5045
TLE1=1 53900U 22119Q   22297.16668981 -.00172918  00000+0 -12510-2 0  9999
TLE2=2 53900  53.2160 108.4840 0001905  28.2889  45.1658 15.73236783  5035
STATUS=0
